[{"OBJECT_NAME":"ION SCV-004","OBJECT_ID":"2022-002K","EPOCH":"2026-03-09T16:32:03.244416","MEAN_MOTION":15.29369331,"ECCENTRICITY":0.00072157,"INCLINATION":97.2961,"RA_OF_ASC_NODE":128.2294,"ARG_OF_PERICENTER":1.6783,"MEAN_ANOMALY":358.448,"EPHEMERIS_TYPE":0,"CLASSIFICATION_TYPE":"U","NORAD_CAT_ID":50993,"ELEMENT_SET_NO":999,"REV_AT_EPOCH":23008,"BSTAR":0.00023198467,"MEAN_MOTION_DOT":6.538e-5,"MEAN_MOTION_DDOT":0},{"OBJECT_NAME":"STARLINK-32753","OBJECT_ID":"2024-254V","EPOCH":"2026-03-09T05:09:56.637504","MEAN_MOTION":15.27576831,"ECCENTRICITY":0.00016837,"INCLINATION":42.9998,"RA_OF_ASC_NODE":18.7697,"ARG_OF_PERICENTER":279.1962,"MEAN_ANOMALY":80.87,"EPHEMERIS_TYPE":0,"CLASSIFICATION_TYPE":"U","NORAD_CAT_ID":62481,"ELEMENT_SET_NO":999,"REV_AT_EPOCH":6758,"BSTAR":0.0010958864,"MEAN_MOTION_DOT":0.00030014,"MEAN_MOTION_DDOT":0}]
