ION SCV-004             
1 50993U 22002K   26068.68892644  .00006538  00000+0  23198-3 0  9998
2 50993  97.2961 128.2294 0007216   1.6783 358.4480 15.29369331230088
STARLINK-32753          
1 62481U 24254V   26068.21523886  .00030014  00000+0  10959-2 0  9998
2 62481  42.9998  18.7697 0001683 279.1962  80.8700 15.27576831 67580
